{"type": "FeatureCollection", "features": [ {"type": "Feature", "properties": {"norad_id": 34031, "name": "COSMOS 2251 DEB", "group": "cosmos-2251-debris", "lat": 60.53556684967097, "lon": 178.31476204725064, "alt_km": 703.2359576043718, "timestamp": "2025-12-06T09:34:17.307647+00:00", "meta": {"OBJECT_NAME": "COSMOS 2251 DEB", "OBJECT_ID": "1993-036HS", "EPOCH": "2025-12-05T22:29:47.321664", "MEAN_MOTION": 14.59558422, "ECCENTRICITY": 0.00229418, "INCLINATION": 74.0117, "RA_OF_ASC_NODE": 148.6982, "ARG_OF_PERICENTER": 269.2716, "MEAN_ANOMALY": 251.889, "EPHEMERIS_TYPE": 0, "CLASSIFICATION_TYPE": "U", "NORAD_CAT_ID": 34031, "ELEMENT_SET_NO": 999, "REV_AT_EPOCH": 88466, "BSTAR": 0.0020345046, "MEAN_MOTION_DOT": 9.689e-05, "MEAN_MOTION_DDOT": 0}, "tle": {"line1": "1 34031U 93036HS  25339.93735326  .00009689  00000+0  20345-2 0  9999", "line2": "2 34031  74.0117 148.6982 0022941 269.2716 251.8890 14.59558422884662"}}, "geometry": {"type": "Point", "coordinates": [178.31476204725064, 60.53556684967097]}}, {"type": "Feature", "properties": {"norad_id": 34035, "name": "COSMOS 2251 DEB", "group": "cosmos-2251-debris", "lat": 42.75837702763823, "lon": 16.381009320696283, "alt_km": 692.0390114277579, "timestamp": "2025-12-06T09:34:17.307657+00:00", "meta": {"OBJECT_NAME": "COSMOS 2251 DEB", "OBJECT_ID": "1993-036HW", "EPOCH": "2025-12-05T20:23:54.102336", "MEAN_MOTION": 14.51811269, "ECCENTRICITY": 0.00442213, "INCLINATION": 74.0655, "RA_OF_ASC_NODE": 2.0947, "ARG_OF_PERICENTER": 5.2724, "MEAN_ANOMALY": 51.8201, "EPHEMERIS_TYPE": 0, "CLASSIFICATION_TYPE": "U", "NORAD_CAT_ID": 34035, "ELEMENT_SET_NO": 999, "REV_AT_EPOCH": 87866, "BSTAR": 0.0026130118, "MEAN_MOTION_DOT": 0.00010637, "MEAN_MOTION_DDOT": 0}, "tle": {"line1": "1 34035U 93036HW  25339.84993174  .00010637  00000+0  26130-2 0  9993", "line2": "2 34035  74.0655   2.0947 0044221   5.2724  51.8201 14.51811269878669"}}, "geometry": {"type": "Point", "coordinates": [16.381009320696283, 42.75837702763823]}}, {"type": "Feature", "properties": {"norad_id": 34036, "name": "COSMOS 2251 DEB", "group": "cosmos-2251-debris", "lat": 48.07741203357997, "lon": -179.33194179269123, "alt_km": 588.485757287689, "timestamp": "2025-12-06T09:34:17.307667+00:00", "meta": {"OBJECT_NAME": "COSMOS 2251 DEB", "OBJECT_ID": "1993-036HX", "EPOCH": "2025-12-05T22:05:46.120416", "MEAN_MOTION": 14.94133318, "ECCENTRICITY": 0.00143278, "INCLINATION": 74.0195, "RA_OF_ASC_NODE": 163.0208, "ARG_OF_PERICENTER": 197.3301, "MEAN_ANOMALY": 162.7395, "EPHEMERIS_TYPE": 0, "CLASSIFICATION_TYPE": "U", "NORAD_CAT_ID": 34036, "ELEMENT_SET_NO": 999, "REV_AT_EPOCH": 88468, "BSTAR": 0.005099004, "MEAN_MOTION_DOT": 0.0005506, "MEAN_MOTION_DDOT": 0}, "tle": {"line1": "1 34036U 93036HX  25339.92067269  .00055060  00000+0  50990-2 0  9990", "line2": "2 34036  74.0195 163.0208 0014327 197.3301 162.7395 14.94133318884689"}}, "geometry": {"type": "Point", "coordinates": [-179.33194179269123, 48.07741203357997]}}, {"type": "Feature", "properties": {"norad_id": 34037, "name": "COSMOS 2251 DEB", "group": "cosmos-2251-debris", "lat": 34.67876762486312, "lon": 73.45823179576371, "alt_km": 765.4389818544305, "timestamp": "2025-12-06T09:34:17.307677+00:00", "meta": {"OBJECT_NAME": "COSMOS 2251 DEB", "OBJECT_ID": "1993-036HY", "EPOCH": "2025-12-05T21:41:15.900864", "MEAN_MOTION": 14.34635651, "ECCENTRICITY": 0.00522838, "INCLINATION": 74.0529, "RA_OF_ASC_NODE": 62.9538, "ARG_OF_PERICENTER": 115.0468, "MEAN_ANOMALY": 245.6125, "EPHEMERIS_TYPE": 0, "CLASSIFICATION_TYPE": "U", "NORAD_CAT_ID": 34037, "ELEMENT_SET_NO": 999, "REV_AT_EPOCH": 87619, "BSTAR": 0.00096310008, "MEAN_MOTION_DOT": 2.741e-05, "MEAN_MOTION_DDOT": 0}, "tle": {"line1": "1 34037U 93036HY  25339.90365626  .00002741  00000+0  96310-3 0  9992", "line2": "2 34037  74.0529  62.9538 0052283 115.0468 245.6125 14.34635651876198"}}, "geometry": {"type": "Point", "coordinates": [73.45823179576371, 34.67876762486312]}}, {"type": "Feature", "properties": {"norad_id": 34040, "name": "COSMOS 2251 DEB", "group": "cosmos-2251-debris", "lat": -3.6483800432067275, "lon": 75.28927669876668, "alt_km": 797.5792328087873, "timestamp": "2025-12-06T09:34:17.307687+00:00", "meta": {"OBJECT_NAME": "COSMOS 2251 DEB", "OBJECT_ID": "1993-036JB", "EPOCH": "2025-12-05T16:02:36.663360", "MEAN_MOTION": 13.68363409, "ECCENTRICITY": 0.0342853, "INCLINATION": 73.9557, "RA_OF_ASC_NODE": 77.5469, "ARG_OF_PERICENTER": 32.3825, "MEAN_ANOMALY": 329.7832, "EPHEMERIS_TYPE": 0, "CLASSIFICATION_TYPE": "U", "NORAD_CAT_ID": 34040, "ELEMENT_SET_NO": 999, "REV_AT_EPOCH": 83503, "BSTAR": 0.00057238154, "MEAN_MOTION_DOT": 7.16e-06, "MEAN_MOTION_DDOT": 0}, "tle": {"line1": "1 34040U 93036JB  25339.66847990  .00000716  00000+0  57238-3 0  9994", "line2": "2 34040  73.9557  77.5469 0342853  32.3825 329.7832 13.68363409835031"}}, "geometry": {"type": "Point", "coordinates": [75.28927669876668, -3.6483800432067275]}}, {"type": "Feature", "properties": {"norad_id": 34045, "name": "COSMOS 2251 DEB", "group": "cosmos-2251-debris", "lat": 73.23527581797879, "lon": 70.61927935567252, "alt_km": 758.4442465119164, "timestamp": "2025-12-06T09:34:17.307697+00:00", "meta": {"OBJECT_NAME": "COSMOS 2251 DEB", "OBJECT_ID": "1993-036JG", "EPOCH": "2025-12-05T23:23:06.021600", "MEAN_MOTION": 14.34062813, "ECCENTRICITY": 0.0025424, "INCLINATION": 74.0386, "RA_OF_ASC_NODE": 323.2112, "ARG_OF_PERICENTER": 48.737, "MEAN_ANOMALY": 15.8785, "EPHEMERIS_TYPE": 0, "CLASSIFICATION_TYPE": "U", "NORAD_CAT_ID": 34045, "ELEMENT_SET_NO": 999, "REV_AT_EPOCH": 87936, "BSTAR": 0.00016682708, "MEAN_MOTION_DOT": 4.42e-06, "MEAN_MOTION_DDOT": 0}, "tle": {"line1": "1 34045U 93036JG  25339.97437525  .00000442  00000+0  16683-3 0  9997", "line2": "2 34045  74.0386 323.2112 0025424  48.7370  15.8785 14.34062813879365"}}, "geometry": {"type": "Point", "coordinates": [70.61927935567252, 73.23527581797879]}}, {"type": "Feature", "properties": {"norad_id": 34046, "name": "COSMOS 2251 DEB", "group": "cosmos-2251-debris", "lat": 16.755240041876323, "lon": -162.62928967999827, "alt_km": 706.71297787806, "timestamp": "2025-12-06T09:34:17.307707+00:00", "meta": {"OBJECT_NAME": "COSMOS 2251 DEB", "OBJECT_ID": "1993-036JH", "EPOCH": "2025-12-05T13:37:22.619424", "MEAN_MOTION": 14.46384496, "ECCENTRICITY": 0.00747423, "INCLINATION": 74.0401, "RA_OF_ASC_NODE": 23.8642, "ARG_OF_PERICENTER": 109.4178, "MEAN_ANOMALY": 46.0809, "EPHEMERIS_TYPE": 0, "CLASSIFICATION_TYPE": "U", "NORAD_CAT_ID": 34046, "ELEMENT_SET_NO": 999, "REV_AT_EPOCH": 87722, "BSTAR": 0.0021747173, "MEAN_MOTION_DOT": 8.067e-05, "MEAN_MOTION_DDOT": 0}, "tle": {"line1": "1 34046U 93036JH  25339.56762291  .00008067  00000+0  21747-2 0  9991", "line2": "2 34046  74.0401  23.8642 0074742 109.4178  46.0809 14.46384496877226"}}, "geometry": {"type": "Point", "coordinates": [-162.62928967999827, 16.755240041876323]}}, {"type": "Feature", "properties": {"norad_id": 34050, "name": "COSMOS 2251 DEB", "group": "cosmos-2251-debris", "lat": 68.33409462805947, "lon": 155.03654356601226, "alt_km": 751.0474890004589, "timestamp": "2025-12-06T09:34:17.307718+00:00", "meta": {"OBJECT_NAME": "COSMOS 2251 DEB", "OBJECT_ID": "1993-036JM", "EPOCH": "2025-12-05T23:02:09.306816", "MEAN_MOTION": 13.96163671, "ECCENTRICITY": 0.02146298, "INCLINATION": 74.0887, "RA_OF_ASC_NODE": 21.6822, "ARG_OF_PERICENTER": 87.7412, "MEAN_ANOMALY": 330.8278, "EPHEMERIS_TYPE": 0, "CLASSIFICATION_TYPE": "U", "NORAD_CAT_ID": 34050, "ELEMENT_SET_NO": 999, "REV_AT_EPOCH": 85337, "BSTAR": 0.00086834686, "MEAN_MOTION_DOT": 1.426e-05, "MEAN_MOTION_DDOT": 0}, "tle": {"line1": "1 34050U 93036JM  25339.95982994  .00001426  00000+0  86835-3 0  9995", "line2": "2 34050  74.0887  21.6822 0214629  87.7412 330.8278 13.96163671853372"}}, "geometry": {"type": "Point", "coordinates": [155.03654356601226, 68.33409462805947]}}, {"type": "Feature", "properties": {"norad_id": 34053, "name": "COSMOS 2251 DEB", "group": "cosmos-2251-debris", "lat": 65.48825226139608, "lon": -68.1402620444434, "alt_km": 791.493830322519, "timestamp": "2025-12-06T09:34:17.307728+00:00", "meta": {"OBJECT_NAME": "COSMOS 2251 DEB", "OBJECT_ID": "1993-036JQ", "EPOCH": "2025-12-05T20:47:22.895808", "MEAN_MOTION": 13.49144359, "ECCENTRICITY": 0.04218121, "INCLINATION": 73.8445, "RA_OF_ASC_NODE": 253.2465, "ARG_OF_PERICENTER": 42.9472, "MEAN_ANOMALY": 320.3761, "EPHEMERIS_TYPE": 0, "CLASSIFICATION_TYPE": "U", "NORAD_CAT_ID": 34053, "ELEMENT_SET_NO": 999, "REV_AT_EPOCH": 82591, "BSTAR": 0.0013419258, "MEAN_MOTION_DOT": 1.44e-05, "MEAN_MOTION_DDOT": 0}, "tle": {"line1": "1 34053U 93036JQ  25339.86623722  .00001440  00000+0  13419-2 0  9992", "line2": "2 34053  73.8445 253.2465 0421812  42.9472 320.3761 13.49144359825911"}}, "geometry": {"type": "Point", "coordinates": [-68.1402620444434, 65.48825226139608]}}, {"type": "Feature", "properties": {"norad_id": 34056, "name": "COSMOS 2251 DEB", "group": "cosmos-2251-debris", "lat": 49.851872437719116, "lon": 107.5198741546123, "alt_km": 808.9988952597723, "timestamp": "2025-12-06T09:34:17.307738+00:00", "meta": {"OBJECT_NAME": "COSMOS 2251 DEB", "OBJECT_ID": "1993-036JT", "EPOCH": "2025-12-05T18:42:18.335232", "MEAN_MOTION": 14.20507186, "ECCENTRICITY": 0.0124491, "INCLINATION": 74.0601, "RA_OF_ASC_NODE": 88.8224, "ARG_OF_PERICENTER": 138.4686, "MEAN_ANOMALY": 349.2485, "EPHEMERIS_TYPE": 0, "CLASSIFICATION_TYPE": "U", "NORAD_CAT_ID": 34056, "ELEMENT_SET_NO": 999, "REV_AT_EPOCH": 86312, "BSTAR": 0.0022934802, "MEAN_MOTION_DOT": 5.304e-05, "MEAN_MOTION_DDOT": 0}, "tle": {"line1": "1 34056U 93036JT  25339.77937888  .00005304  00000+0  22935-2 0  9992", "line2": "2 34056  74.0601  88.8224 0124491 138.4686 349.2485 14.20507186863126"}}, "geometry": {"type": "Point", "coordinates": [107.5198741546123, 49.851872437719116]}}]}